{
    "links": {
        "self": "http://www.neowsapp.com/rest/v1/neo/3836271?api_key=iIulBulltgU6a56xZRHN4H3l9WmuAYTsLGpBGhQ2"
    },
    "id": "3836271",
    "neo_reference_id": "3836271",
    "name": "(2018 WF)",
    "designation": "2018 WF",
    "nasa_jpl_url": "http://ssd.jpl.nasa.gov/sbdb.cgi?sstr=3836271",
    "absolute_magnitude_h": 26.5,
    "estimated_diameter": {
        "kilometers": {
            "estimated_diameter_min": 0.0133215567,
            "estimated_diameter_max": 0.0297879063
        },
        "meters": {
            "estimated_diameter_min": 13.3215566698,
            "estimated_diameter_max": 29.7879062798
        },
        "miles": {
            "estimated_diameter_min": 0.008277629,
            "estimated_diameter_max": 0.0185093411
        },
        "feet": {
            "estimated_diameter_min": 43.7058959846,
            "estimated_diameter_max": 97.7293544391
        }
    },
    "is_potentially_hazardous_asteroid": false,
    "close_approach_data": [
        {
            "close_approach_date": "2018-11-18",
            "close_approach_date_full": "2018-Nov-18 12:35",
            "epoch_date_close_approach": 1542544500000,
            "relative_velocity": {
                "kilometers_per_second": "10.5817687432",
                "kilometers_per_hour": "38094.3674756824",
                "miles_per_hour": "23670.358501765"
            },
            "miss_distance": {
                "astronomical": "0.0173906144",
                "lunar": "6.7649490016",
                "kilometers": "2601598.872231328",
                "miles": "1616558.5783872064"
            },
            "orbiting_body": "Earth"
        }
    ],
    "orbital_data": {
        "orbit_id": "4",
        "orbit_determination_date": "2018-12-01 06:23:58",
        "first_observation_date": "2018-11-17",
        "last_observation_date": "2018-11-18",
        "data_arc_in_days": 1,
        "observations_used": 66,
        "orbit_uncertainty": "7",
        "minimum_orbit_intersection": ".0191383",
        "jupiter_tisserand_invariant": "3.613",
        "epoch_osculation": "2459000.5",
        "eccentricity": ".5059513288501015",
        "semi_major_axis": "2.023937228200281",
        "inclination": "14.41767274198494",
        "ascending_node_longitude": "234.6977865422546",
        "orbital_period": "1051.705112671622",
        "perihelion_distance": ".9999234980831579",
        "perihelion_argument": "192.4627792387725",
        "aphelion_distance": "3.047950958317405",
        "perihelion_time": "2459501.899816159580",
        "mean_anomaly": "188.3702041165144",
        "mean_motion": ".3423012740572312",
        "equinox": "J2000",
        "orbit_class": {
            "orbit_class_type": "APO",
            "orbit_class_description": "Near-Earth asteroid orbits which cross the Earth’s orbit similar to that of 1862 Apollo",
            "orbit_class_range": "a (semi-major axis) > 1.0 AU; q (perihelion) < 1.017 AU"
        }
    },
    "is_sentry_object": false
}